{"type": "FeatureCollection", "features": [ {"type": "Feature", "properties": {"norad_id": 66375, "name": "STARLINK-35826", "group": "last-30-days", "lat": -38.89475218191155, "lon": 177.55571247353555, "alt_km": 350.80130047505736, "timestamp": "2025-12-03T13:52:08.344522+00:00", "meta": {"OBJECT_NAME": "STARLINK-35826", "OBJECT_ID": "2025-254AD", "EPOCH": "2025-12-03T05:16:18.003648", "MEAN_MOTION": 15.74280725, "ECCENTRICITY": 0.00013878, "INCLINATION": 53.1569, "RA_OF_ASC_NODE": 322.112, "ARG_OF_PERICENTER": 113.5504, "MEAN_ANOMALY": 246.5662, "EPHEMERIS_TYPE": 0, "CLASSIFICATION_TYPE": "U", "NORAD_CAT_ID": 66375, "ELEMENT_SET_NO": 999, "REV_AT_EPOCH": 418, "BSTAR": 0.0019838384, "MEAN_MOTION_DOT": 0.00301749, "MEAN_MOTION_DDOT": 0}, "tle": {"line1": "1 66375U 25254AD  25337.21965282  .00301749  00000+0  19838-2 0  9994", "line2": "2 66375  53.1569 322.1120 0001387 113.5504 246.5662 15.74280725  4182"}}, "geometry": {"type": "Point", "coordinates": [177.55571247353555, -38.89475218191155]}}, {"type": "Feature", "properties": {"norad_id": 66376, "name": "SHIYAN-32 01", "group": "last-30-days", "lat": 32.279537531669575, "lon": 13.172401935695468, "alt_km": 440.4632663893244, "timestamp": "2025-12-03T13:52:08.344534+00:00", "meta": {"OBJECT_NAME": "SHIYAN-32 01", "OBJECT_ID": "2025-255A", "EPOCH": "2025-12-03T05:29:52.633824", "MEAN_MOTION": 15.42271758, "ECCENTRICITY": 0.00134393, "INCLINATION": 52.9966, "RA_OF_ASC_NODE": 223.2797, "ARG_OF_PERICENTER": 12.6687, "MEAN_ANOMALY": 347.4652, "EPHEMERIS_TYPE": 0, "CLASSIFICATION_TYPE": "U", "NORAD_CAT_ID": 66376, "ELEMENT_SET_NO": 999, "REV_AT_EPOCH": 388, "BSTAR": 0.00059185127, "MEAN_MOTION_DOT": 0.00025602, "MEAN_MOTION_DDOT": 0}, "tle": {"line1": "1 66376U 25255A   25337.22908141  .00025602  00000+0  59185-3 0  9999", "line2": "2 66376  52.9966 223.2797 0013439  12.6687 347.4652 15.42271758  3881"}}, "geometry": {"type": "Point", "coordinates": [13.172401935695468, 32.279537531669575]}}, {"type": "Feature", "properties": {"norad_id": 66377, "name": "CZ-11 DEB", "group": "last-30-days", "lat": -19.46571254993526, "lon": 56.94964898437059, "alt_km": 447.9075990592919, "timestamp": "2025-12-03T13:52:08.344545+00:00", "meta": {"OBJECT_NAME": "CZ-11 DEB", "OBJECT_ID": "2025-255B", "EPOCH": "2025-12-03T06:46:13.479744", "MEAN_MOTION": 15.43522949, "ECCENTRICITY": 0.00139428, "INCLINATION": 52.9967, "RA_OF_ASC_NODE": 222.8976, "ARG_OF_PERICENTER": 10.5111, "MEAN_ANOMALY": 349.6183, "EPHEMERIS_TYPE": 0, "CLASSIFICATION_TYPE": "U", "NORAD_CAT_ID": 66377, "ELEMENT_SET_NO": 999, "REV_AT_EPOCH": 375, "BSTAR": 0.0010068054, "MEAN_MOTION_DOT": 0.00045877, "MEAN_MOTION_DDOT": 0}, "tle": {"line1": "1 66377U 25255B   25337.28210046  .00045877  00000+0  10068-2 0  9998", "line2": "2 66377  52.9967 222.8976 0013942  10.5111 349.6183 15.43522949  3756"}}, "geometry": {"type": "Point", "coordinates": [56.94964898437059, -19.46571254993526]}}, {"type": "Feature", "properties": {"norad_id": 66378, "name": "SHIYAN-32 02", "group": "last-30-days", "lat": -39.81774202836554, "lon": 80.39249718045404, "alt_km": 444.50700200688516, "timestamp": "2025-12-03T13:52:08.344555+00:00", "meta": {"OBJECT_NAME": "SHIYAN-32 02", "OBJECT_ID": "2025-255C", "EPOCH": "2025-12-03T06:38:56.541120", "MEAN_MOTION": 15.44097281, "ECCENTRICITY": 0.001243, "INCLINATION": 52.9969, "RA_OF_ASC_NODE": 222.8675, "ARG_OF_PERICENTER": 10.0538, "MEAN_ANOMALY": 350.0713, "EPHEMERIS_TYPE": 0, "CLASSIFICATION_TYPE": "U", "NORAD_CAT_ID": 66378, "ELEMENT_SET_NO": 999, "REV_AT_EPOCH": 375, "BSTAR": 0.0015910386, "MEAN_MOTION_DOT": 0.00074401, "MEAN_MOTION_DDOT": 0}, "tle": {"line1": "1 66378U 25255C   25337.27704330  .00074401  00000+0  15910-2 0  9998", "line2": "2 66378  52.9969 222.8675 0012430  10.0538 350.0713 15.44097281  3756"}}, "geometry": {"type": "Point", "coordinates": [80.39249718045404, -39.81774202836554]}}, {"type": "Feature", "properties": {"norad_id": 66379, "name": "SHIYAN-32 03", "group": "last-30-days", "lat": 8.131920843866443, "lon": 35.37441238835018, "alt_km": 447.6282795463976, "timestamp": "2025-12-03T13:52:08.344568+00:00", "meta": {"OBJECT_NAME": "SHIYAN-32 03", "OBJECT_ID": "2025-255D", "EPOCH": "2025-12-03T06:55:02.765280", "MEAN_MOTION": 15.42627557, "ECCENTRICITY": 0.00154679, "INCLINATION": 52.9973, "RA_OF_ASC_NODE": 222.9374, "ARG_OF_PERICENTER": 13.8345, "MEAN_ANOMALY": 346.308, "EPHEMERIS_TYPE": 0, "CLASSIFICATION_TYPE": "U", "NORAD_CAT_ID": 66379, "ELEMENT_SET_NO": 999, "REV_AT_EPOCH": 377, "BSTAR": 0.00052575283, "MEAN_MOTION_DOT": 0.00022987, "MEAN_MOTION_DDOT": 0}, "tle": {"line1": "1 66379U 25255D   25337.28822645  .00022987  00000+0  52575-3 0  9991", "line2": "2 66379  52.9973 222.9374 0015467  13.8345 346.3080 15.42627557  3779"}}, "geometry": {"type": "Point", "coordinates": [35.37441238835018, 8.131920843866443]}}, {"type": "Feature", "properties": {"norad_id": 66380, "name": "STARLINK-35139", "group": "last-30-days", "lat": 47.72044925549141, "lon": 72.28241180301787, "alt_km": 440.27264247334915, "timestamp": "2025-12-03T13:52:08.344579+00:00", "meta": {"OBJECT_NAME": "STARLINK-35139", "OBJECT_ID": "2025-257A", "EPOCH": "2025-12-03T08:00:01.999872", "MEAN_MOTION": 15.39556256, "ECCENTRICITY": 0.00010229, "INCLINATION": 53.1588, "RA_OF_ASC_NODE": 308.9782, "ARG_OF_PERICENTER": 80.9925, "MEAN_ANOMALY": 115.3359, "EPHEMERIS_TYPE": 0, "CLASSIFICATION_TYPE": "U", "NORAD_CAT_ID": 66380, "ELEMENT_SET_NO": 999, "REV_AT_EPOCH": 492, "BSTAR": 0.0025825358, "MEAN_MOTION_DOT": 0.00104102, "MEAN_MOTION_DDOT": 0}, "tle": {"line1": "1 66380U 25257A   25337.33335648  .00104102  00000+0  25825-2 0  9990", "line2": "2 66380  53.1588 308.9782 0001022  80.9925 115.3359 15.39556256  4929"}}, "geometry": {"type": "Point", "coordinates": [72.28241180301787, 47.72044925549141]}}, {"type": "Feature", "properties": {"norad_id": 66381, "name": "STARLINK-35158", "group": "last-30-days", "lat": 46.86399049253986, "lon": 74.67277577055604, "alt_km": 440.2808315814664, "timestamp": "2025-12-03T13:52:08.344589+00:00", "meta": {"OBJECT_NAME": "STARLINK-35158", "OBJECT_ID": "2025-257B", "EPOCH": "2025-12-03T08:00:01.999872", "MEAN_MOTION": 15.39552986, "ECCENTRICITY": 0.00012995, "INCLINATION": 53.1587, "RA_OF_ASC_NODE": 308.9738, "ARG_OF_PERICENTER": 81.5281, "MEAN_ANOMALY": 116.6385, "EPHEMERIS_TYPE": 0, "CLASSIFICATION_TYPE": "U", "NORAD_CAT_ID": 66381, "ELEMENT_SET_NO": 999, "REV_AT_EPOCH": 498, "BSTAR": 0.0021311253, "MEAN_MOTION_DOT": 0.00085617, "MEAN_MOTION_DDOT": 0}, "tle": {"line1": "1 66381U 25257B   25337.33335648  .00085617  00000+0  21311-2 0  9996", "line2": "2 66381  53.1587 308.9738 0001299  81.5281 116.6385 15.39552986  4983"}}, "geometry": {"type": "Point", "coordinates": [74.67277577055604, 46.86399049253986]}}, {"type": "Feature", "properties": {"norad_id": 66382, "name": "STARLINK-35639", "group": "last-30-days", "lat": 32.26436013577041, "lon": 99.52263558442097, "alt_km": 442.74542590307374, "timestamp": "2025-12-03T13:52:08.344600+00:00", "meta": {"OBJECT_NAME": "STARLINK-35639", "OBJECT_ID": "2025-257C", "EPOCH": "2025-12-03T08:00:01.999872", "MEAN_MOTION": 15.39542741, "ECCENTRICITY": 0.00012879, "INCLINATION": 53.159, "RA_OF_ASC_NODE": 308.9248, "ARG_OF_PERICENTER": 85.8077, "MEAN_ANOMALY": 136.2666, "EPHEMERIS_TYPE": 0, "CLASSIFICATION_TYPE": "U", "NORAD_CAT_ID": 66382, "ELEMENT_SET_NO": 999, "REV_AT_EPOCH": 498, "BSTAR": 0.0027057376, "MEAN_MOTION_DOT": 0.00109111, "MEAN_MOTION_DDOT": 0}, "tle": {"line1": "1 66382U 25257C   25337.33335648  .00109111  00000+0  27057-2 0  9996", "line2": "2 66382  53.1590 308.9248 0001287  85.8077 136.2666 15.39542741  4989"}}, "geometry": {"type": "Point", "coordinates": [99.52263558442097, 32.26436013577041]}}, {"type": "Feature", "properties": {"norad_id": 66383, "name": "STARLINK-35690", "group": "last-30-days", "lat": 12.769973813145175, "lon": 117.93803641362003, "alt_km": 445.66096070641106, "timestamp": "2025-12-03T13:52:08.344611+00:00", "meta": {"OBJECT_NAME": "STARLINK-35690", "OBJECT_ID": "2025-257D", "EPOCH": "2025-12-03T08:00:01.999872", "MEAN_MOTION": 15.40253069, "ECCENTRICITY": 0.00015752, "INCLINATION": 53.1594, "RA_OF_ASC_NODE": 308.8745, "ARG_OF_PERICENTER": 87.962, "MEAN_ANOMALY": 159.5062, "EPHEMERIS_TYPE": 0, "CLASSIFICATION_TYPE": "U", "NORAD_CAT_ID": 66383, "ELEMENT_SET_NO": 999, "REV_AT_EPOCH": 498, "BSTAR": -0.024352335, "MEAN_MOTION_DOT": -0.00913536, "MEAN_MOTION_DDOT": 0}, "tle": {"line1": "1 66383U 25257D   25337.33335648 -.00913536  00000+0 -24352-1 0  9997", "line2": "2 66383  53.1594 308.8745 0001575  87.9620 159.5062 15.40253069  4984"}}, "geometry": {"type": "Point", "coordinates": [117.93803641362003, 12.769973813145175]}}, {"type": "Feature", "properties": {"norad_id": 66384, "name": "STARLINK-35662", "group": "last-30-days", "lat": 11.321295358192863, "lon": 119.08567543967057, "alt_km": 446.0529859505559, "timestamp": "2025-12-03T13:52:08.344623+00:00", "meta": {"OBJECT_NAME": "STARLINK-35662", "OBJECT_ID": "2025-257E", "EPOCH": "2025-12-03T08:00:01.999872", "MEAN_MOTION": 15.40241316, "ECCENTRICITY": 0.00015616, "INCLINATION": 53.1595, "RA_OF_ASC_NODE": 308.8716, "ARG_OF_PERICENTER": 80.7636, "MEAN_ANOMALY": 168.5442, "EPHEMERIS_TYPE": 0, "CLASSIFICATION_TYPE": "U", "NORAD_CAT_ID": 66384, "ELEMENT_SET_NO": 999, "REV_AT_EPOCH": 498, "BSTAR": -0.023943032, "MEAN_MOTION_DOT": -0.00899067, "MEAN_MOTION_DDOT": 0}, "tle": {"line1": "1 66384U 25257E   25337.33335648 -.00899067  00000+0 -23943-1 0  9995", "line2": "2 66384  53.1595 308.8716 0001561  80.7636 168.5442 15.40241316  4981"}}, "geometry": {"type": "Point", "coordinates": [119.08567543967057, 11.321295358192863]}}]}